{"fetched_at":"2026-05-20T10:54:00Z","count":16649,"tles":[{"name":"HULIANWANG DIGUI-53","line1":"1 65110U 25168E   26140.16092784 -.00000092  00000+0  68496-4 0  9993","line2":"2 65110  50.0043  66.2087 0009303   7.8936 352.2081 13.29321214 38969","category":"Other"},{"name":"COSMOS 2251 DEB","line1":"1 35605U 93036AMY 25356.60884269  .00262511  00000+0  66900-2 0  9993","line2":"2 35605  73.8690 315.1978 0022804 235.9327 123.9715 15.38179315661234","category":"Other"},{"name":"ONEWEB-0445","line1":"1 51639U 22012T   26140.17074110  .00000669  00000+0  18803-2 0  9997","line2":"2 51639  87.8864  41.8296 0001695  82.7224 277.4096 13.10374156205679","category":"Other"},{"name":"STARLINK-31234","line1":"1 59043U 24038W   26139.87921757  .00001691  00000+0  70956-4 0  9992","line2":"2 59043  43.0051 341.7052 0001248 254.2379 105.8336 15.27583218125573","category":"Starlink"},{"name":"STARLINK-11614 [DTC]","line1":"1 63270U 25053F   26140.06979800  .00148674  00000+0  11376-2 0  9994","line2":"2 63270  43.0037  42.1607 0002881 253.8130 106.2421 15.70919625 68890","category":"Starlink"},{"name":"KUIPER-00405","line1":"1 68923U 26098E   26140.19384514 -.00000124  00000+0  80212-5 0  9996","line2":"2 68923  51.8747 202.8886 0014205  47.2282 312.9895 15.32265137  3042","category":"Other"},{"name":"FENGYUN 1C DEB","line1":"1 29791U 99025CH  26104.78338782  .00003162  00000+0  66006-3 0  9994","line2":"2 29791  99.0341 121.1557 0040129  49.8879 124.4511 14.60204127  6404","category":"Weather"},{"name":"STARLINK-5918","line1":"1 55939U 23037AB  26140.20750955  .00000351  00000+0  37206-4 0  9992","line2":"2 55939  69.9990 104.1062 0003910 260.9047  99.1670 14.98329281174696","category":"Starlink"},{"name":"GAOFEN-14 02","line1":"1 66175U 25242A   26140.17380157  .00004040  00000+0  16296-3 0  9999","line2":"2 66175  97.4124 215.9954 0002539 107.7478 252.4038 15.25376325 31425","category":"Other"},{"name":"SES-6","line1":"1 39172U 13026A   26140.15730666 -.00000265  00000+0  00000+0 0  9993","line2":"2 39172   0.0184 343.7821 0002587  70.4767 199.6851  1.00269421 47441","category":"Other"},{"name":"STARLINK-4405","line1":"1 53201U 22084N   26140.06858678  .00047796  00000+0  22377-2 0  9993","line2":"2 53201  97.5994 201.9376 0002663  87.7649 272.3890 15.19561943210145","category":"Starlink"},{"name":"STARLINK-11187 [DTC]","line1":"1 60184U 24124B   26139.34788392  .00002077  00000+0  22009-4 0  9999","line2":"2 60184  53.1594 172.7997 0001062  86.3236 273.7904 15.69692814107637","category":"Starlink"},{"name":"FENGYUN 1C DEB","line1":"1 31212U 99025BKS 26101.32189126  .00001987  00000+0  10469-2 0  9992","line2":"2 31212  99.2012 141.3218 0074628 194.8110 165.0876 14.13773316973485","category":"Weather"},{"name":"STARLINK-5872","line1":"1 57232U 23094Q   26139.62953063  .00002454  00000+0  98594-4 0  9995","line2":"2 57232  42.9984 350.1738 0000736 249.8731 110.2041 15.27599302158628","category":"Starlink"},{"name":"CZ-6A DEB","line1":"1 60755U 24140EE  24249.30992794  .00005860  00000+0  35723-2 0  9998","line2":"2 60755  88.7983 346.9819 0137603 114.8441 246.7120 14.01344060  2255","category":"Other"},{"name":"STARLINK-35912","line1":"1 66882U 25283E   26140.05428867  .00011774  00000+0  35900-3 0  9992","line2":"2 66882  53.1601  52.4614 0001281  88.1565 271.9585 15.34403632 26775","category":"Starlink"},{"name":"STARLINK-34079","line1":"1 64038U 25102S   26140.17423661  .00003017  00000+0  26052-3 0  9992","line2":"2 64038  69.9997 294.0585 0003157 266.9286  93.1512 14.98337452 56761","category":"Starlink"},{"name":"UNKNOWN","line1":"1 89172U          26094.02362862  .00016244  00000+0  25546-2 0  9997","line2":"2 89172  82.0604 116.2928 0278446 294.7340  62.5108 14.49691267618149","category":"Other"},{"name":"STARLINK-33940","line1":"1 63831U 25092AD  26139.95803591  .00010601  00000+0  39407-3 0  9993","line2":"2 63831  43.0012 130.1108 0001425 274.5382  85.5307 15.27589265 59563","category":"Starlink"},{"name":"UNKNOWN","line1":"1 82428U          23333.48813797  .07778996  00000+0  21443+0 0  9990","line2":"2 82428  63.1243   7.5399 0041943  44.0593 316.3853 15.30829822318353","category":"Other"},{"name":"FENGYUN 1C DEB","line1":"1 29906U 99025HC  26104.75776091  .00004287  00000+0  10638-2 0  9996","line2":"2 29906  98.7048 217.3076 0036955 136.9861 223.4232 14.51979457999414","category":"Weather"},{"name":"STARLINK-5798","line1":"1 56040U 23042BG  26138.88085617  .00000029  00000+0  10580-4 0  9997","line2":"2 56040  43.0037 354.6195 0001462 262.1464  97.9222 15.27576536173936","category":"Starlink"},{"name":"ALICE","line1":"1 39467U 13072F   26140.08036054  .00004367  00000+0  22664-3 0  9993","line2":"2 39467 120.4593 193.4595 0159204 326.5549  32.5550 15.08416382111030","category":"Other"},{"name":"2022-087E","line1":"1 53303U 22087E   23362.48712877  .00021039  00000+0  59240-3 0  9990","line2":"2 53303  97.3557  76.5680 0010482 256.4436 103.5641 15.36428137 79285","category":"Other"},{"name":"STARLINK-32124","line1":"1 60298U 24132W   26140.09539294 -.00000084  00000+0  90752-5 0  9991","line2":"2 60298  53.1610  80.7095 0001377  87.6060 272.5099 15.31701854102492","category":"Starlink"},{"name":"STARLINK-34571","line1":"1 64914U 25157L   26139.96734971  .00015306  00000+0  52780-3 0  9990","line2":"2 64914  53.1606  14.8062 0001257  91.9642 268.1503 15.30202791 46986","category":"Starlink"},{"name":"FENGYUN 1C DEB","line1":"1 31329U 99025BQH 26102.18406181  .00004479  00000+0  74419-3 0  9994","line2":"2 31329  98.9071 103.8764 0054228  74.1363 286.5808 14.69738615 43833","category":"Weather"},{"name":"STARLINK-2067","line1":"1 47674U 21012BG  23362.14926358  .00002215  00000+0  16749-3 0  9997","line2":"2 47674  53.0538  54.3526 0000886  79.0368 281.0720 15.06409653158782","category":"Starlink"},{"name":"STARLINK-6321","line1":"1 57340U 23099N   26140.16990038  .00000117  00000+0  13773-4 0  9994","line2":"2 57340  43.0016 209.1201 0001098 284.0409  76.0320 15.27577391157003","category":"Starlink"},{"name":"STARLINK-36741","line1":"1 67727U 26026G   26140.07207450  .00013838  00000+0  43001-3 0  9996","line2":"2 67727  97.2803 193.6347 0001556  78.2039 281.9378 15.33456048 15068","category":"Starlink"},{"name":"STARLINK-35326","line1":"1 66031U 25232AC  26140.19880764  .00012162  00000+0  37049-3 0  9993","line2":"2 66031  53.1592 131.7606 0001011  64.9636 295.1472 15.34401501 34386","category":"Starlink"},{"name":"STARLINK-37389","line1":"1 68778U 26086N   26139.95240218  .00147150  00000+0  96797-3 0  9998","line2":"2 68778  97.2839 176.5677 0001426  80.9790 279.1636 15.75250811  4712","category":"Starlink"},{"name":"COSMOS 2085","line1":"1 20693U 90061A   26104.72255654 -.00000074  00000+0  00000+0 0  9995","line2":"2 20693  12.7316 336.9390 0014164  29.5881 168.6464  1.00262937130867","category":"Other"},{"name":"ANGOSAT 1","line1":"1 43087U 17086A   26104.45317928  .00000111  00000+0  00000+0 0  9997","line2":"2 43087   7.4217  68.0116 0018152 178.6668 164.9170  0.99377720 30090","category":"Other"},{"name":"STARLINK-4619","line1":"1 54191U 22141AL  26140.02447187  .00010334  00000+0  66741-3 0  9993","line2":"2 54191  53.2172  34.1241 0001282  70.9673 289.1458 15.08786315196762","category":"Starlink"},{"name":"ORBCOMM FM41","line1":"1 33061U 08031B   26104.87162056  .00000738  00000+0  11793-3 0  9994","line2":"2 33061  48.4446 324.7026 0004218 245.6236 128.0867 14.82415518958971","category":"Other"},{"name":"STARLINK-2667","line1":"1 48663U 21044AB  26140.20582616  .00002001  00000+0  76206-4 0  9998","line2":"2 48663  53.1601 131.2967 0001213  94.8581 265.2559 15.31706306274926","category":"Starlink"},{"name":"STARLINK-30790","line1":"1 58127U 23162K   26139.58785423  .00029516  00000+0  14342-2 0  9998","line2":"2 58127  42.9979  94.3863 0014790 141.2763 218.9148 15.17822184143126","category":"Starlink"},{"name":"IRIDIUM 33 DEB","line1":"1 36011U 97051US  26102.44783773  .00000887  00000+0  26521-3 0  9998","line2":"2 36011  86.3437 343.5863 0018111 177.0030 309.6813 14.41776984662797","category":"Other"},{"name":"STARLINK-3503","line1":"1 51865U 22022P   26140.03960206  .00000967  00000+0  78816-4 0  9997","line2":"2 51865  53.2181  48.8180 0001463  94.4231 265.6928 15.08837736233883","category":"Starlink"},{"name":"STARLINK-31247","line1":"1 59206U 24046F   26139.85621978  .00000326  00000+0  23137-4 0  9995","line2":"2 59206  53.1593 184.9040 0001186  81.0612 279.0523 15.30192465123943","category":"Starlink"},{"name":"STARLINK-34119","line1":"1 63895U 25095F   26139.95249120  .00017962  00000+0  66028-3 0  9994","line2":"2 63895  42.9981 134.0139 0001290 274.8325  85.2380 15.27599111 58684","category":"Starlink"},{"name":"UNKNOWN","line1":"1 84434U          23356.99837321  .00001345  00000+0  40659-2 0  9992","line2":"2 84434  19.9769 242.1393 7117143 262.2357  19.0243  2.39468817 68989","category":"Other"},{"name":"FENGYUN 1C DEB","line1":"1 29975U 99025KZ  26104.63165567 -.00000053  00000+0 -50176-5 0  9992","line2":"2 29975  99.3177 152.7218 0113840  38.8974  82.5360 13.98083759981546","category":"Weather"},{"name":"ANDESITE","line1":"1 45726U 20037D   26140.05676918  .00001449  00000+0  10514-3 0  9992","line2":"2 45726  97.7864 332.7460 0007422 264.1372  95.9008 15.05531807321431","category":"Other"},{"name":"STARLINK-6107","line1":"1 56117U 23046AA  26140.18941829 -.00001470  00000+0 -43926-4 0  9991","line2":"2 56117  43.0010 103.3266 0001410 272.1563  87.9127 15.27571413173138","category":"Starlink"},{"name":"FLOCK 4H-34","line1":"1 66737U 25276BZ  26140.21281882  .00004416  00000+0  20748-3 0  9994","line2":"2 66737  97.4240 214.4730 0003606  66.9421 293.2194 15.20119494 25431","category":"Other"},{"name":"STARLINK-4539","line1":"1 53423U 22097AM  26139.75306508  .00000363  00000+0  40872-4 0  9998","line2":"2 53423  53.2161 155.1113 0001151  73.7250 286.3869 15.08835247209350","category":"Starlink"}]}